ONEWEB-0564             
1 55801U 23029F   25185.18369684  .00000025  00000+0  28495-4 0  9999
2 55801  87.9268 343.7964 0001459  97.4181 262.7118 13.20769775115928
ONEWEB-0638             
1 55802U 23029G   25184.92585652  .00000172  00000+0  42914-3 0  9990
2 55802  87.9040 359.0556 0001608 109.4210 250.7093 13.14503581113647
ONEWEB-0639             
1 55803U 23029H   25185.03282428  .00000043  00000+0  76215-4 0  9998
2 55803  87.9215  14.1946 0002970  96.8881 263.2590 13.19724898113675
ONEWEB-0640             
1 55804U 23029J   25184.93536694  .00000281  00000+0  72237-3 0  9997
2 55804  87.9038 359.0414 0002016 114.0171 246.1170 13.14502640113663
ONEWEB-0641             
1 55805U 23029K   25184.95227960  .00000098  00000+0  21203-3 0  9996
2 55805  87.9212  14.1821 0002059  90.4859 269.6510 13.19726133112988
ONEWEB-0642             
1 55806U 23029L   25184.94753481  .00000079  00000+0  16523-3 0  9996
2 55806  87.9211  14.2206 0002783  89.8739 270.2712 13.19724125112979
ONEWEB-0643             
1 55807U 23029M   25184.75300444 -.00000111  00000+0 -33433-3 0  9991
2 55807  87.9040 359.0598 0002537  84.3258 275.8161 13.14502365113613
ONEWEB-0644             
1 55808U 23029N   25185.09443261  .00000079  00000+0  16560-3 0  9998
2 55808  87.9219  14.1957 0002385  89.7062 270.4344 13.19725063113681
